2025-155V               
1 64895U 25155V   26068.85787115  .00013705  00000+0  51002-3 0  9990
2 64895  97.4485  37.2490 0008035 152.8264 207.3397 15.27583301 65579
STARLINK-36146          
1 67426U 26005Y   26068.50435436  .00032894  00000+0  11988-2 0  9994
2 67426  42.9999 239.4128 0002068 283.3401  76.7220 15.27600398  8659
